{"type": "FeatureCollection", "features": [ {"type": "Feature", "properties": {"norad_id": 43262, "name": "GAOFEN-1 04", "group": "resource", "lat": -71.35975490823996, "lon": 62.22699648127689, "alt_km": 648.5333440673639, "timestamp": "2025-12-05T11:32:55.684089+00:00", "meta": {"OBJECT_NAME": "GAOFEN-1 04", "OBJECT_ID": "2018-031D", "EPOCH": "2025-12-04T17:59:16.266048", "MEAN_MOTION": 14.76424365, "ECCENTRICITY": 0.0001302, "INCLINATION": 98.082, "RA_OF_ASC_NODE": 36.5814, "ARG_OF_PERICENTER": 61.7666, "MEAN_ANOMALY": 298.3675, "EPHEMERIS_TYPE": 0, "CLASSIFICATION_TYPE": "U", "NORAD_CAT_ID": 43262, "ELEMENT_SET_NO": 999, "REV_AT_EPOCH": 41399, "BSTAR": 0.00027442, "MEAN_MOTION_DOT": 1.856e-05, "MEAN_MOTION_DDOT": 0}, "tle": {"line1": "1 43262U 18031D   25338.74949382  .00001856  00000+0  27442-3 0  9998", "line2": "2 43262  98.0820  36.5814 0001302  61.7666 298.3675 14.76424365413999"}}, "geometry": {"type": "Point", "coordinates": [62.22699648127689, -71.35975490823996]}}, {"type": "Feature", "properties": {"norad_id": 43437, "name": "SENTINEL-3B", "group": "resource", "lat": -49.232570081505074, "lon": 54.912534964198215, "alt_km": 810.4739678290844, "timestamp": "2025-12-05T11:32:55.684102+00:00", "meta": {"OBJECT_NAME": "SENTINEL-3B", "OBJECT_ID": "2018-039A", "EPOCH": "2025-12-04T15:35:07.443744", "MEAN_MOTION": 14.26738162, "ECCENTRICITY": 0.0001476, "INCLINATION": 98.6277, "RA_OF_ASC_NODE": 43.9502, "ARG_OF_PERICENTER": 110.5365, "MEAN_ANOMALY": 249.5973, "EPHEMERIS_TYPE": 0, "CLASSIFICATION_TYPE": "U", "NORAD_CAT_ID": 43437, "ELEMENT_SET_NO": 999, "REV_AT_EPOCH": 39638, "BSTAR": 0.00015035, "MEAN_MOTION_DOT": 3.2e-06, "MEAN_MOTION_DDOT": 0}, "tle": {"line1": "1 43437U 18039A   25338.64939171  .00000320  00000+0  15035-3 0  9994", "line2": "2 43437  98.6277  43.9502 0001476 110.5365 249.5973 14.26738162396382"}}, "geometry": {"type": "Point", "coordinates": [54.912534964198215, -49.232570081505074]}}, {"type": "Feature", "properties": {"norad_id": 43461, "name": "GAOFEN-5 01", "group": "resource", "lat": 38.5871856152394, "lon": 129.11896596919047, "alt_km": 689.7588513562632, "timestamp": "2025-12-05T11:32:55.684113+00:00", "meta": {"OBJECT_NAME": "GAOFEN-5 01", "OBJECT_ID": "2018-043A", "EPOCH": "2025-12-04T11:53:06.565632", "MEAN_MOTION": 14.60395735, "ECCENTRICITY": 0.0001499, "INCLINATION": 98.4313, "RA_OF_ASC_NODE": 301.3191, "ARG_OF_PERICENTER": 7.6077, "MEAN_ANOMALY": 352.5145, "EPHEMERIS_TYPE": 0, "CLASSIFICATION_TYPE": "U", "NORAD_CAT_ID": 43461, "ELEMENT_SET_NO": 999, "REV_AT_EPOCH": 40327, "BSTAR": 0.00021847, "MEAN_MOTION_DOT": 1.009e-05, "MEAN_MOTION_DDOT": 0}, "tle": {"line1": "1 43461U 18043A   25338.49521488  .00001009  00000+0  21847-3 0  9990", "line2": "2 43461  98.4313 301.3191 0001499   7.6077 352.5145 14.60395735403270"}}, "geometry": {"type": "Point", "coordinates": [129.11896596919047, 38.5871856152394]}}, {"type": "Feature", "properties": {"norad_id": 43484, "name": "GAOFEN-6", "group": "resource", "lat": 73.23337154565928, "lon": 16.91221499776056, "alt_km": 624.025469326747, "timestamp": "2025-12-05T11:32:55.684123+00:00", "meta": {"OBJECT_NAME": "GAOFEN-6", "OBJECT_ID": "2018-048A", "EPOCH": "2025-12-04T18:56:46.891968", "MEAN_MOTION": 14.76543198, "ECCENTRICITY": 0.0013312, "INCLINATION": 97.8042, "RA_OF_ASC_NODE": 43.3227, "ARG_OF_PERICENTER": 87.0633, "MEAN_ANOMALY": 273.21, "EPHEMERIS_TYPE": 0, "CLASSIFICATION_TYPE": "U", "NORAD_CAT_ID": 43484, "ELEMENT_SET_NO": 999, "REV_AT_EPOCH": 40470, "BSTAR": 0.00011209, "MEAN_MOTION_DOT": 7.33e-06, "MEAN_MOTION_DDOT": 0}, "tle": {"line1": "1 43484U 18048A   25338.78943162  .00000733  00000+0  11209-3 0  9993", "line2": "2 43484  97.8042  43.3227 0013312  87.0633 273.2100 14.76543198404701"}}, "geometry": {"type": "Point", "coordinates": [16.91221499776056, 73.23337154565928]}}, {"type": "Feature", "properties": {"norad_id": 43585, "name": "GAOFEN-11 01", "group": "resource", "lat": 29.4136713207846, "lon": -133.45894299982567, "alt_km": 421.70987950113704, "timestamp": "2025-12-05T11:32:55.684133+00:00", "meta": {"OBJECT_NAME": "GAOFEN-11 01", "OBJECT_ID": "2018-063A", "EPOCH": "2025-12-04T17:50:48.433632", "MEAN_MOTION": 15.48885726, "ECCENTRICITY": 0.0004814, "INCLINATION": 97.1576, "RA_OF_ASC_NODE": 41.747, "ARG_OF_PERICENTER": 348.8228, "MEAN_ANOMALY": 11.2916, "EPHEMERIS_TYPE": 0, "CLASSIFICATION_TYPE": "U", "NORAD_CAT_ID": 43585, "ELEMENT_SET_NO": 999, "REV_AT_EPOCH": 41018, "BSTAR": 0.00047926, "MEAN_MOTION_DOT": 0.00025797, "MEAN_MOTION_DDOT": 0}, "tle": {"line1": "1 43585U 18063A   25338.74361613  .00025797  00000+0  47926-3 0  9995", "line2": "2 43585  97.1576  41.7470 0004814 348.8228  11.2916 15.48885726410185"}}, "geometry": {"type": "Point", "coordinates": [-133.45894299982567, 29.4136713207846]}}, {"type": "Feature", "properties": {"norad_id": 43613, "name": "ICESAT-2", "group": "resource", "lat": 71.83638085218607, "lon": -127.3539427900274, "alt_km": 473.8747657559925, "timestamp": "2025-12-05T11:32:55.684143+00:00", "meta": {"OBJECT_NAME": "ICESAT-2", "OBJECT_ID": "2018-070A", "EPOCH": "2025-12-04T16:22:39.575136", "MEAN_MOTION": 15.28289414, "ECCENTRICITY": 5.07e-05, "INCLINATION": 92.0056, "RA_OF_ASC_NODE": 238.5621, "ARG_OF_PERICENTER": 145.7146, "MEAN_ANOMALY": 214.4136, "EPHEMERIS_TYPE": 0, "CLASSIFICATION_TYPE": "U", "NORAD_CAT_ID": 43613, "ELEMENT_SET_NO": 999, "REV_AT_EPOCH": 40275, "BSTAR": 0.00099762, "MEAN_MOTION_DOT": 0.00027537, "MEAN_MOTION_DDOT": 0}, "tle": {"line1": "1 43613U 18070A   25338.68240249  .00027537  00000+0  99762-3 0  9998", "line2": "2 43613  92.0056 238.5621 0000507 145.7146 214.4136 15.28289414402751"}}, "geometry": {"type": "Point", "coordinates": [-127.3539427900274, 71.83638085218607]}}, {"type": "Feature", "properties": {"norad_id": 43719, "name": "HYSIS", "group": "resource", "lat": 55.34655122017578, "lon": 30.738839345156713, "alt_km": 627.3215991391098, "timestamp": "2025-12-05T11:32:55.684153+00:00", "meta": {"OBJECT_NAME": "HYSIS", "OBJECT_ID": "2018-096A", "EPOCH": "2025-12-04T17:25:48.955584", "MEAN_MOTION": 14.78609268, "ECCENTRICITY": 0.0001628, "INCLINATION": 98.0108, "RA_OF_ASC_NODE": 41.743, "ARG_OF_PERICENTER": 64.9298, "MEAN_ANOMALY": 295.2081, "EPHEMERIS_TYPE": 0, "CLASSIFICATION_TYPE": "U", "NORAD_CAT_ID": 43719, "ELEMENT_SET_NO": 999, "REV_AT_EPOCH": 37868, "BSTAR": 3.555e-05, "MEAN_MOTION_DOT": 2.08e-06, "MEAN_MOTION_DDOT": 0}, "tle": {"line1": "1 43719U 18096A   25338.72626106  .00000208  00000+0  35550-4 0  9990", "line2": "2 43719  98.0108  41.7430 0001628  64.9298 295.2081 14.78609268378686"}}, "geometry": {"type": "Point", "coordinates": [30.738839345156713, 55.34655122017578]}}, {"type": "Feature", "properties": {"norad_id": 43783, "name": "KAZSTSAT", "group": "resource", "lat": 66.25592561627137, "lon": -147.7027824299151, "alt_km": 564.3873071756425, "timestamp": "2025-12-05T11:32:55.684163+00:00", "meta": {"OBJECT_NAME": "KAZSTSAT", "OBJECT_ID": "2018-099AB", "EPOCH": "2025-12-04T15:49:40.780128", "MEAN_MOTION": 14.99310817, "ECCENTRICITY": 0.0006413, "INCLINATION": 97.4553, "RA_OF_ASC_NODE": 14.1921, "ARG_OF_PERICENTER": 1.1963, "MEAN_ANOMALY": 358.9275, "EPHEMERIS_TYPE": 0, "CLASSIFICATION_TYPE": "U", "NORAD_CAT_ID": 43783, "ELEMENT_SET_NO": 999, "REV_AT_EPOCH": 38215, "BSTAR": 0.00031062, "MEAN_MOTION_DOT": 3.74e-05, "MEAN_MOTION_DDOT": 0}, "tle": {"line1": "1 43783U 18099AB  25338.65949977  .00003740  00000+0  31062-3 0  9997", "line2": "2 43783  97.4553  14.1921 0006413   1.1963 358.9275 14.99310817382153"}}, "geometry": {"type": "Point", "coordinates": [-147.7027824299151, 66.25592561627137]}}, {"type": "Feature", "properties": {"norad_id": 43831, "name": "SAUDISAT 5A", "group": "resource", "lat": -20.373061238577897, "lon": -142.92914374716213, "alt_km": 496.25744393072546, "timestamp": "2025-12-05T11:32:55.684173+00:00", "meta": {"OBJECT_NAME": "SAUDISAT 5A", "OBJECT_ID": "2018-102A", "EPOCH": "2025-12-04T18:55:53.497632", "MEAN_MOTION": 15.25505731, "ECCENTRICITY": 0.0011787, "INCLINATION": 97.3369, "RA_OF_ASC_NODE": 39.1344, "ARG_OF_PERICENTER": 100.4681, "MEAN_ANOMALY": 259.7886, "EPHEMERIS_TYPE": 0, "CLASSIFICATION_TYPE": "U", "NORAD_CAT_ID": 43831, "ELEMENT_SET_NO": 999, "REV_AT_EPOCH": 38601, "BSTAR": 0.00053371, "MEAN_MOTION_DOT": 0.00013488, "MEAN_MOTION_DDOT": 0}, "tle": {"line1": "1 43831U 18102A   25338.78881363  .00013488  00000+0  53371-3 0  9991", "line2": "2 43831  97.3369  39.1344 0011787 100.4681 259.7886 15.25505731386013"}}, "geometry": {"type": "Point", "coordinates": [-142.92914374716213, -20.373061238577897]}}, {"type": "Feature", "properties": {"norad_id": 43833, "name": "SAUDISAT 5B", "group": "resource", "lat": -62.51540971774741, "lon": -151.82033480093105, "alt_km": 502.18945217772125, "timestamp": "2025-12-05T11:32:55.684186+00:00", "meta": {"OBJECT_NAME": "SAUDISAT 5B", "OBJECT_ID": "2018-102C", "EPOCH": "2025-12-04T18:44:50.883936", "MEAN_MOTION": 15.25863408, "ECCENTRICITY": 0.0012517, "INCLINATION": 97.3464, "RA_OF_ASC_NODE": 41.8511, "ARG_OF_PERICENTER": 103.1758, "MEAN_ANOMALY": 257.0878, "EPHEMERIS_TYPE": 0, "CLASSIFICATION_TYPE": "U", "NORAD_CAT_ID": 43833, "ELEMENT_SET_NO": 999, "REV_AT_EPOCH": 38612, "BSTAR": 0.00052105, "MEAN_MOTION_DOT": 0.00013311, "MEAN_MOTION_DDOT": 0}, "tle": {"line1": "1 43833U 18102C   25338.78114449  .00013311  00000+0  52105-3 0  9996", "line2": "2 43833  97.3464  41.8511 0012517 103.1758 257.0878 15.25863408386126"}}, "geometry": {"type": "Point", "coordinates": [-151.82033480093105, -62.51540971774741]}}]}